NORAD_CAT_ID,OBJECT_NAME,OBJECT_TYPE,EPOCH,MEAN_MOTION,ECCENTRICITY,INCLINATION,RA_OF_ASC_NODE,ARG_OF_PERICENTER,MEAN_ANOMALY,BSTAR,MEAN_MOTION_DOT,MEAN_MOTION_DDOT,TLE_LINE0,TLE_LINE1,TLE_LINE2,SEMIMAJOR_AXIS,PERIOD,APOGEE,PERIGEE,DECAYED
55270.0,STARLINK-5301,PAYLOAD,2023-04-16 13:40:51,14.99129108,0.0003022,70.0,192.6,267.6492,92.4322,-2.8057e-05,-4.35e-06,0.0,0 STARLINK-5301,1 55270U 23010B   23106.57004132 -.00000435  00000-0 -28057-4 0  9999,2 55270  70.0000 192.6000 0003022 267.6492  92.4322 14.99129108 13975,6947.723,96.056,571.687,567.488,0.0
55270.0,STARLINK-5301,PAYLOAD,2023-04-16 15:16:56,14.9913023,0.0003056,69.9999,192.4316,268.2726,91.8083,-1.5464e-05,-2.82e-06,0.0,0 STARLINK-5301,1 55270U 23010B   23106.63676460 -.00000282  00000-0 -15464-4 0  9993,2 55270  69.9999 192.4316 0003056 268.2726  91.8083 14.99130230 14292,6947.719,96.056,571.708,567.461,0.0
55270.0,STARLINK-5301,PAYLOAD,2023-04-17 05:41:40,14.99135345,0.0003383,69.9996,190.9142,273.552,86.5252,-1.7696e-06,-1.15e-06,0.0,0 STARLINK-5301,1 55270U 23010B   23107.23727776 -.00000115  00000-0 -17696-5 0  9992,2 55270  69.9996 190.9142 0003383 273.5520  86.5252 14.99135345 14070,6947.704,96.055,571.919,567.218,0.0
55270.0,STARLINK-5301,PAYLOAD,2023-04-17 13:42:05,14.99144424,0.0003101,69.9997,190.0712,270.3698,89.7106,-1.7307e-06,-1.15e-06,0.0,0 STARLINK-5301,1 55270U 23010B   23107.57089225 -.00000115  00000-0 -17307-5 0  9998,2 55270  69.9997 190.0712 0003101 270.3698  89.7106 14.99144424 14435,6947.675,96.055,571.695,567.386,0.0
55270.0,STARLINK-5301,PAYLOAD,2023-04-17 15:18:09,14.99144878,0.0003118,69.9995,189.9026,269.7815,90.2987,4.1558e-05,4.13e-06,0.0,0 STARLINK-5301,1 55270U 23010B   23107.63761441  .00000413  00000-0  41558-4 0  9995,2 55270  69.9995 189.9026 0003118 269.7815  90.2987 14.99144878 14447,6947.674,96.055,571.705,567.373,0.0
55270.0,STARLINK-5301,PAYLOAD,2023-04-18 08:55:04,14.99124274,0.0003458,69.9999,188.0502,274.0504,86.026,0.00028388,3.366e-05,0.0,0 STARLINK-5301,1 55270U 23010B   23108.37158511  .00003366  00000-0  28388-3 0  9990,2 55270  69.9999 188.0502 0003458 274.0504  86.0260 14.99124274 14558,6947.738,96.056,572.005,567.2,0.0
55270.0,STARLINK-5301,PAYLOAD,2023-04-18 13:43:19,14.99135176,0.0003162,69.9999,187.5448,275.4633,84.6166,0.00015311,1.772e-05,0.0,0 STARLINK-5301,1 55270U 23010B   23108.57175458  .00001772  00000-0  15311-3 0  9992,2 55270  69.9999 187.5448 0003162 275.4633  84.6166 14.99135176 14272,6947.704,96.055,571.766,567.372,0.0
55270.0,STARLINK-5301,PAYLOAD,2023-04-18 15:19:24,14.99137692,0.0003107,69.9999,187.3764,275.2017,84.8788,0.00013685,1.574e-05,0.0,0 STARLINK-5301,1 55270U 23010B   23108.63847747  .00001574  00000-0  13685-3 0  9998,2 55270  69.9999 187.3764 0003107 275.2017  84.8788 14.99137692 14596,6947.696,96.055,571.72,567.403,0.0
55270.0,STARLINK-5301,PAYLOAD,2023-04-19 08:56:19,14.99140035,0.000302,69.9997,185.5233,277.2172,82.8644,9.8142e-06,2.6e-07,0.0,0 STARLINK-5301,1 55270U 23010B   23109.37244333  .00000026  00000-0  98142-5 0  9996,2 55270  69.9997 185.5233 0003020 277.2172  82.8644 14.99140035 14700,6947.689,96.055,571.652,567.456,0.0
55270.0,STARLINK-5301,PAYLOAD,2023-04-19 15:20:38,14.99142192,0.0002815,70.0003,184.8507,269.2651,90.8186,3.6184e-05,3.47e-06,0.0,0 STARLINK-5301,1 55270U 23010B   23109.63933636  .00000347  00000-0  36184-4 0  9999,2 55270  70.0003 184.8507 0002815 269.2651  90.8186 14.99142192 14741,6947.682,96.055,571.503,567.592,0.0
55270.0,STARLINK-5301,PAYLOAD,2023-04-19 21:44:58,14.99140403,0.0002756,70.0004,184.1769,267.9282,92.1562,-7.0478e-06,-1.8e-06,0.0,0 STARLINK-5301,1 55270U 23010B   23109.90623419 -.00000180  00000-0 -70478-5 0  9996,2 55270  70.0004 184.1769 0002756 267.9282  92.1562 14.99140403 14470,6947.688,96.055,571.468,567.638,0.0
55270.0,STARLINK-5301,PAYLOAD,2023-04-20 08:57:33,14.99137981,0.0002803,70.0,182.9979,265.9384,94.1455,-2.3314e-06,-1.22e-06,0.0,0 STARLINK-5301,1 55270U 23010B   23110.37330288 -.00000122  00000-0 -23314-5 0  9991,2 55270  70.0000 182.9979 0002803 265.9384  94.1455 14.99137981 14851,6947.695,96.055,571.508,567.613,0.0
55270.0,STARLINK-5301,PAYLOAD,2023-04-20 13:45:48,14.99137097,0.0002821,70.0,182.4926,266.382,93.7016,-1.3583e-05,-2.59e-06,0.0,0 STARLINK-5301,1 55270U 23010B   23110.57347580 -.00000259  00000-0 -13583-4 0  9993,2 55270  70.0000 182.4926 0002821 266.3820  93.7016 14.99137097 14887,6947.698,96.055,571.523,567.603,0.0
55270.0,STARLINK-5301,PAYLOAD,2023-04-21 10:34:52,14.99137464,0.000285,69.9998,180.3028,268.8599,91.2234,-7.9402e-06,-1.9e-06,0.0,0 STARLINK-5301,1 55270U 23010B   23111.44088805 -.00000190  00000-0 -79402-5 0  9999,2 55270  69.9998 180.3028 0002850 268.8599  91.2234 14.99137464 14706,6947.697,96.055,571.542,567.582,0.0
55270.0,STARLINK-5301,PAYLOAD,2023-04-21 13:47:02,14.99135996,0.0002932,69.9998,179.9661,267.5923,92.49,-3.0532e-05,-4.66e-06,0.0,0 STARLINK-5301,1 55270U 23010B   23111.57433763 -.00000466  00000-0 -30532-4 0  9996,2 55270  69.9998 179.9661 0002932 267.5923  92.4900 14.99135996 15039,6947.702,96.055,571.604,567.529,0.0
55270.0,STARLINK-5301,PAYLOAD,2023-04-22 04:11:46,14.99139055,0.0003081,69.9993,178.4497,268.3821,91.6985,8.5443e-05,9.48e-06,0.0,0 STARLINK-5301,1 55270U 23010B   23112.17484809  .00000948  00000-0  85443-4 0  9994,2 55270  69.9993 178.4497 0003081 268.3821  91.6985 14.99139055 15121,6947.692,96.055,571.698,567.416,0.0
55270.0,STARLINK-5301,PAYLOAD,2023-04-22 21:48:41,14.99140834,0.0003335,69.9986,176.5964,272.0479,88.0298,8.1252e-05,8.96e-06,0.0,0 STARLINK-5301,1 55270U 23010B   23112.90880965  .00000896  00000-0  81252-4 0  9994,2 55270  69.9986 176.5964 0003335 272.0479  88.0298 14.99140834 14925,6947.687,96.055,571.869,567.235,0.0
55270.0,STARLINK-5301,PAYLOAD,2023-04-23 13:49:32,14.99125932,0.0003263,69.9988,174.9118,270.3832,89.6953,-9.8443e-05,-1.293e-05,0.0,0 STARLINK-5301,1 55270U 23010B   23113.57606660 -.00001293  00000-0 -98443-4 0  9990,2 55270  69.9988 174.9118 0003263 270.3832  89.6953 14.99125932 15023,6947.733,96.056,571.865,567.331,0.0
55270.0,STARLINK-5301,PAYLOAD,2023-04-24 04:14:15,14.99140096,0.0003566,69.9981,173.3959,270.0427,90.0324,-3.5556e-05,-5.27e-06,0.0,0 STARLINK-5301,1 55270U 23010B   23114.17657397 -.00000527  00000-0 -35556-4 0  9995,2 55270  69.9981 173.3959 0003566 270.0427  90.0324 14.99140096 15425,6947.689,96.055,572.031,567.076,0.0
55270.0,STARLINK-5301,PAYLOAD,2023-04-25 04:15:29,14.99141909,0.0003149,69.9978,170.8697,273.2064,86.8736,4.681e-05,4.77e-06,0.0,0 STARLINK-5301,1 55270U 23010B   23115.17743045  .00000477  00000-0  46810-4 0  9999,2 55270  69.9978 170.8697 0003149 273.2064  86.8736 14.99141909 15267,6947.683,96.055,571.736,567.36,0.0
55270.0,STARLINK-5301,PAYLOAD,2023-04-25 10:39:50,14.9912238,0.0003209,69.9986,170.1969,261.1253,98.9543,3.1609e-06,-5.5e-07,0.0,0 STARLINK-5301,1 55270U 23010B   23115.44433868 -.00000055  00000-0  31609-5 0  9992,2 55270  69.9986 170.1969 0003209 261.1253  98.9543 14.99122380 15301,6947.744,96.056,571.838,567.379,0.0
55270.0,STARLINK-5301,PAYLOAD,2023-04-25 13:52:01,14.99119655,0.000322,69.9984,169.8583,267.8401,92.239,-2.9814e-05,-4.57e-06,0.0,0 STARLINK-5301,1 55270U 23010B   23115.57779058 -.00000457  00000-0 -29814-4 0  9991,2 55270  69.9984 169.8583 0003220 267.8401  92.2390 14.99119655 15631,6947.752,96.056,571.854,567.38,0.0
55270.0,STARLINK-5301,PAYLOAD,2023-04-26 12:17:10,14.99136123,0.0003361,69.998,167.5007,266.8952,93.1823,-7.1965e-05,-9.7e-06,0.0,0 STARLINK-5301,1 55270U 23010B   23116.51192436 -.00000970  00000-0 -71965-4 0  9999,2 55270  69.9980 167.5007 0003361 266.8952  93.1823 14.99136123 15774,6947.701,96.055,571.901,567.231,0.0
55270.0,STARLINK-5301,PAYLOAD,2023-04-27 12:18:24,14.99134264,0.0003237,69.9981,164.9729,265.059,95.02,0.00018598,2.173e-05,0.0,0 STARLINK-5301,1 55270U 23010B   23117.51278074  .00002173  00000-0  18598-3 0  9990,2 55270  69.9981 164.9729 0003237 265.0590  95.0200 14.99134264 15929,6947.707,96.055,571.821,567.323,0.0
55270.0,STARLINK-5301,PAYLOAD,2023-04-27 13:54:29,14.99135003,0.0003239,69.998,164.804,263.6711,96.4079,0.00019104,2.235e-05,0.0,0 STARLINK-5301,1 55270U 23010B   23117.57950421  .00002235  00000-0  19104-3 0  9992,2 55270  69.9980 164.8040 0003239 263.6711  96.4079 14.99135003 15622,6947.705,96.055,571.82,567.319,0.0
55270.0,STARLINK-5301,PAYLOAD,2023-04-28 05:55:17,14.99148422,0.0003329,69.9978,163.1199,264.3559,95.7221,0.00017562,2.047e-05,0.0,0 STARLINK-5301,1 55270U 23010B   23118.24673508  .00002047  00000-0  17562-3 0  9992,2 55270  69.9978 163.1199 0003329 264.3559  95.7221 14.99148422 15725,6947.663,96.055,571.841,567.215,0.0
55270.0,STARLINK-5301,PAYLOAD,2023-04-28 12:19:37,14.99151783,0.0003294,69.9978,162.4461,263.5149,96.5636,0.00020221,2.372e-05,0.0,0 STARLINK-5301,1 55270U 23010B   23118.51362634  .00002372  00000-0  20221-3 0  9994,2 55270  69.9978 162.4461 0003294 263.5149  96.5636 14.99151783 16078,6947.653,96.054,571.806,567.229,0.0
55270.0,STARLINK-5301,PAYLOAD,2023-04-29 04:20:27,14.99133126,0.0002822,69.9986,160.7605,261.93,98.1539,0.00020011,2.345e-05,0.0,0 STARLINK-5301,1 55270U 23010B   23119.18087340  .00002345  00000-0  20011-3 0  9993,2 55270  69.9986 160.7605 0002822 261.9300  98.1539 14.99133126 15862,6947.71,96.056,571.536,567.615,0.0
55270.0,STARLINK-5301,PAYLOAD,2023-04-29 12:20:52,14.99141581,0.0003152,69.9981,159.9198,263.601,96.479,-3.9565e-05,-5.76e-06,0.0,0 STARLINK-5301,1 55270U 23010B   23119.51449458 -.00000576  00000-0 -39565-4 0  9993,2 55270  69.9981 159.9198 0003152 263.6010  96.4790 14.99141581 16223,6947.684,96.055,571.739,567.359,0.0
55270.0,STARLINK-5301,PAYLOAD,2023-04-30 01:09:31,14.99146207,0.0003194,69.9989,158.5727,269.4365,90.6429,-7.1732e-05,-9.68e-06,0.0,0 STARLINK-5301,1 55270U 23010B   23120.04828223 -.00000968  00000-0 -71732-4 0  9991,2 55270  69.9989 158.5727 0003194 269.4365  90.6429 14.99146207 15995,6947.67,96.055,571.754,567.316,0.0
